NORAD_CAT_ID,OBJECT_NAME,OBJECT_TYPE,EPOCH,MEAN_MOTION,ECCENTRICITY,INCLINATION,RA_OF_ASC_NODE,ARG_OF_PERICENTER,MEAN_ANOMALY,BSTAR,MEAN_MOTION_DOT,MEAN_MOTION_DDOT,TLE_LINE0,TLE_LINE1,TLE_LINE2,SEMIMAJOR_AXIS,PERIOD,APOGEE,PERIGEE,DECAYED
52870.0,STARLINK-4195,PAYLOAD,2024-08-02 22:39:35,15.08827828,0.0001403,53.2166,124.6574,101.2827,258.8323,4.0182e-06,-2.24e-06,0.0,0 STARLINK-4195,1 52870U 22062AS  24215.94416363 -.00000224  00000-0  40182-5 0  9993,2 52870  53.2166 124.6574 0001403 101.2827 258.8323 15.08827828117802,6917.918,95.438,540.753,538.812,0.0
52870.0,STARLINK-4195,PAYLOAD,2024-08-03 11:22:40,15.08836741,0.0001446,53.2181,122.2783,97.3204,262.7952,3.489e-05,2.67e-06,0.0,0 STARLINK-4195,1 52870U 22062AS  24216.47408037  .00000267  00000-0  34890-4 0  9995,2 52870  53.2181 122.2783 0001446  97.3204 262.7952 15.08836741118375,6917.89,95.438,540.756,538.755,0.0
52870.0,STARLINK-4195,PAYLOAD,2024-08-03 22:30:21,15.08848827,0.0001393,53.217,120.1963,92.4389,267.6763,0.00013329,1.835e-05,0.0,0 STARLINK-4195,1 52870U 22062AS  24216.93775067  .00001835  00000-0  13329-3 0  9991,2 52870  53.2170 120.1963 0001393  92.4389 267.6763 15.08848827117956,6917.853,95.437,540.682,538.755,0.0
52870.0,STARLINK-4195,PAYLOAD,2024-08-04 03:16:30,15.0885964,0.0001477,53.2168,119.3033,111.7699,248.345,0.00028955,4.326e-05,0.0,0 STARLINK-4195,1 52870U 22062AS  24217.13646812  .00004326  00000-0  28955-3 0  9998,2 52870  53.2168 119.3033 0001477 111.7699 248.3450 15.08859640118475,6917.82,95.436,540.707,538.664,0.0
52870.0,STARLINK-4195,PAYLOAD,2024-08-04 20:45:45,15.08851298,0.0002179,53.2161,116.0275,120.2003,239.9205,0.00033766,5.091e-05,0.0,0 STARLINK-4195,1 52870U 22062AS  24217.86511463  .00005091  00000-0  33766-3 0  9997,2 52870  53.2161 116.0275 0002179 120.2003 239.9205 15.08851298118581,6917.846,95.437,541.218,538.203,0.0
52870.0,STARLINK-4195,PAYLOAD,2024-08-04 22:21:09,15.08854281,0.0001669,53.2164,115.7363,85.6939,274.4244,0.00042748,6.524e-05,0.0,0 STARLINK-4195,1 52870U 22062AS  24217.93135554  .00006524  00000-0  42748-3 0  9990,2 52870  53.2164 115.7363 0001669  85.6939 274.4244 15.08854281118103,6917.837,95.437,540.856,538.547,0.0
52870.0,STARLINK-4195,PAYLOAD,2024-08-04 23:56:31,15.08862787,0.0001621,53.2166,115.4388,96.6928,263.4248,0.0005854,9.047e-05,0.0,0 STARLINK-4195,1 52870U 22062AS  24217.99759208  .00009047  00000-0  58540-3 0  9994,2 52870  53.2166 115.4388 0001621  96.6928 263.4248 15.08862787118604,6917.811,95.436,540.797,538.554,0.0
52870.0,STARLINK-4195,PAYLOAD,2024-08-05 20:36:33,15.08833957,0.0001637,53.2175,111.5694,103.9978,256.1197,0.00010157,1.329e-05,0.0,0 STARLINK-4195,1 52870U 22062AS  24218.85871967  .00001329  00000-0  10157-3 0  9994,2 52870  53.2175 111.5694 0001637 103.9978 256.1197 15.08833957118738,6917.899,95.438,540.896,538.631,0.0
52870.0,STARLINK-4195,PAYLOAD,2024-08-05 22:11:56,15.08833145,0.000149,53.2169,111.272,111.7297,248.3853,0.00011919,1.609e-05,0.0,0 STARLINK-4195,1 52870U 22062AS  24218.92495993  .00001609  00000-0  11919-3 0  9991,2 52870  53.2169 111.2720 0001490 111.7297 248.3853 15.08833145118254,6917.901,95.438,540.797,538.736,0.0
52870.0,STARLINK-4195,PAYLOAD,2024-08-05 23:47:20,15.08831402,0.0001614,53.2156,110.9825,84.5824,275.5352,3.2312e-05,2.26e-06,0.0,0 STARLINK-4195,1 52870U 22062AS  24218.99120393  .00000226  00000-0  32312-4 0  9992,2 52870  53.2156 110.9825 0001614  84.5824 275.5352 15.08831402118264,6917.907,95.438,540.888,538.655,0.0
52870.0,STARLINK-4195,PAYLOAD,2024-08-06 22:02:44,15.08844119,0.0001599,53.2156,106.816,78.6309,281.4863,0.00034823,5.259e-05,0.0,0 STARLINK-4195,1 52870U 22062AS  24219.91856520  .00005259  00000-0  34823-3 0  9992,2 52870  53.2156 106.8160 0001599  78.6309 281.4863 15.08844119118402,6917.868,95.437,540.839,538.627,0.0
52870.0,STARLINK-4195,PAYLOAD,2024-08-07 20:18:07,15.08849704,0.000159,53.2155,102.6531,74.7603,285.3565,0.0003319,5e-05,0.0,0 STARLINK-4195,1 52870U 22062AS  24220.84592262  .00005000  00000-0  33190-3 0  9996,2 52870  53.2155 102.6531 0001590  74.7603 285.3565 15.08849704118544,6917.851,95.437,540.816,538.616,0.0
52870.0,STARLINK-4195,PAYLOAD,2024-08-08 01:04:16,15.0885744,0.0001686,53.2156,101.7594,64.8427,295.274,0.00046377,7.104e-05,0.0,0 STARLINK-4195,1 52870U 22062AS  24221.04463978  .00007104  00000-0  46377-3 0  9998,2 52870  53.2156 101.7594 0001686  64.8427 295.2740 15.08857440118578,6917.827,95.436,540.858,538.526,0.0
52870.0,STARLINK-4195,PAYLOAD,2024-08-08 21:44:17,15.08842928,0.000167,53.2153,97.8949,72.8099,287.3076,0.00013728,1.898e-05,0.0,0 STARLINK-4195,1 52870U 22062AS  24221.90576266  .00001898  00000-0  13728-3 0  9996,2 52870  53.2153  97.8949 0001670  72.8099 287.3076 15.08842928119199,6917.871,95.437,540.892,538.581,0.0
52870.0,STARLINK-4195,PAYLOAD,2024-08-09 08:52:00,15.08833169,0.0002496,53.2176,95.8109,72.931,287.1955,-9.038e-05,-1.726e-05,0.0,0 STARLINK-4195,1 52870U 22062AS  24222.36944665 -.00001726  00000-0 -90380-4 0  9991,2 52870  53.2176  95.8109 0002496  72.9310 287.1955 15.08833169119263,6917.901,95.438,541.493,538.04,0.0
52870.0,STARLINK-4195,PAYLOAD,2024-08-09 21:35:05,15.08840788,0.0001704,53.217,93.4375,72.5217,287.5961,0.00019726,2.853e-05,0.0,0 STARLINK-4195,1 52870U 22062AS  24222.89936444  .00002853  00000-0  19726-3 0  9999,2 52870  53.2170  93.4375 0001704  72.5217 287.5961 15.08840788118859,6917.878,95.438,540.922,538.564,0.0
52870.0,STARLINK-4195,PAYLOAD,2024-08-10 00:45:50,15.08854266,0.000146,53.2159,92.8367,83.5216,276.5943,0.00051147,7.865e-05,0.0,0 STARLINK-4195,1 52870U 22062AS  24223.03183929  .00007865  00000-0  51147-3 0  9999,2 52870  53.2159  92.8367 0001460  83.5216 276.5943 15.08854266119361,6917.837,95.437,540.712,538.692,0.0
52870.0,STARLINK-4195,PAYLOAD,2024-08-10 21:25:51,15.08847619,0.0001437,53.2158,88.9728,86.0721,274.0436,0.00020488,2.975e-05,0.0,0 STARLINK-4195,1 52870U 22062AS  24223.89296248  .00002975  00000-0  20488-3 0  9993,2 52870  53.2158  88.9728 0001437  86.0721 274.0436 15.08847619119498,6917.857,95.437,540.716,538.728,0.0
52870.0,STARLINK-4195,PAYLOAD,2024-08-11 21:16:39,15.08851787,0.0002067,53.2152,84.5152,77.4984,282.6239,0.00034399,5.192e-05,0.0,0 STARLINK-4195,1 52870U 22062AS  24224.88656281  .00005192  00000-0  34399-3 0  9990,2 52870  53.2152  84.5152 0002067  77.4984 282.6239 15.08851787119150,6917.844,95.437,541.139,538.279,0.0
52870.0,STARLINK-4195,PAYLOAD,2024-08-12 21:07:25,15.08864749,0.000224,53.2157,80.0507,91.7136,268.4113,0.00053836,8.296e-05,0.0,0 STARLINK-4195,1 52870U 22062AS  24225.88015438  .00008296  00000-0  53836-3 0  9999,2 52870  53.2157  80.0507 0002240  91.7136 268.4113 15.08864749119796,6917.805,95.436,541.219,538.12,0.0
52870.0,STARLINK-4195,PAYLOAD,2024-08-13 00:18:11,15.08882789,0.0001051,53.2168,79.4582,81.6117,278.4994,0.0010326,0.00016203,0.0,0 STARLINK-4195,1 52870U 22062AS  24226.01262997  .00016203  00000-0  10326-2 0  9992,2 52870  53.2168  79.4582 0001051  81.6117 278.4994 15.08882789119814,6917.75,95.435,540.342,538.888,0.0
52870.0,STARLINK-4195,PAYLOAD,2024-08-13 14:36:41,15.0881149,0.0001892,53.2151,76.7832,90.6671,269.4538,-0.00065445,-0.00010681,0.0,0 STARLINK-4195,1 52870U 22062AS  24226.60881238 -.00010681  00000-0 -65445-3 0  9991,2 52870  53.2151  76.7832 0001892  90.6671 269.4538 15.08811490119413,6917.968,95.439,541.141,538.524,0.0
52870.0,STARLINK-4195,PAYLOAD,2024-08-14 06:30:33,15.08811542,0.0001885,53.2181,73.8072,107.7554,252.3644,-3.011e-05,-7.67e-06,0.0,0 STARLINK-4195,1 52870U 22062AS  24227.27122548 -.00000767  00000-0 -30110-4 0  9993,2 52870  53.2181  73.8072 0001885 107.7554 252.3644 15.08811542120006,6917.967,95.439,541.136,538.528,0.0
52870.0,STARLINK-4195,PAYLOAD,2024-08-14 20:49:01,15.08845392,0.0001625,53.2166,71.1335,90.9898,269.128,0.00066156,0.00010258,0.0,0 STARLINK-4195,1 52870U 22062AS  24227.86737901  .00010258  00000-0  66156-3 0  9995,2 52870  53.2166  71.1335 0001625  90.9898 269.1280 15.08845392120099,6917.864,95.437,540.853,538.605,0.0
52870.0,STARLINK-4195,PAYLOAD,2024-08-15 06:21:20,15.08852595,0.0001793,53.2163,69.3505,91.6443,268.4754,0.00073027,0.00011357,0.0,0 STARLINK-4195,1 52870U 22062AS  24228.26482128  .00011357  00000-0  73027-3 0  9994,2 52870  53.2163  69.3505 0001793  91.6443 268.4754 15.08852595119666,6917.842,95.437,540.947,538.467,0.0
52870.0,STARLINK-4195,PAYLOAD,2024-08-16 06:12:07,15.08846782,0.0001785,53.2167,64.8889,88.6303,271.4894,-8.4963e-05,-1.64e-05,0.0,0 STARLINK-4195,1 52870U 22062AS  24229.25841459 -.00001640  00000-0 -84963-4 0  9998,2 52870  53.2167  64.8889 0001785  88.6303 271.4894 15.08846782120300,6917.86,95.437,540.959,538.49,0.0
52870.0,STARLINK-4195,PAYLOAD,2024-08-17 12:24:26,15.08844706,0.000181,53.2172,59.2393,87.6389,272.481,3.1356e-05,2.11e-06,0.0,0 STARLINK-4195,1 52870U 22062AS  24230.51697495  .00000211  00000-0  31356-4 0  9997,2 52870  53.2172  59.2393 0001810  87.6389 272.4810 15.08844706120499,6917.866,95.437,540.983,538.479,0.0
52870.0,STARLINK-4195,PAYLOAD,2024-08-18 18:36:43,15.08885712,0.0001577,53.221,53.5909,105.5917,254.5249,0.0004611,7.067e-05,0.0,0 STARLINK-4195,1 52870U 22062AS  24231.77550061  .00007067  00000-0  46110-3 0  9992,2 52870  53.2210  53.5909 0001577 105.5917 254.5249 15.08885712120689,6917.741,95.435,540.697,538.515,0.0
52870.0,STARLINK-4195,PAYLOAD,2024-08-19 04:09:05,15.08841651,0.0001513,53.2176,51.8028,88.9352,271.1814,6.5029e-05,7.47e-06,0.0,0 STARLINK-4195,1 52870U 22062AS  24232.17297653  .00000747  00000-0  65029-4 0  9991,2 52870  53.2176  51.8028 0001513  88.9352 271.1814 15.08841651120744,6917.875,95.437,540.787,538.694,0.0
52870.0,STARLINK-4195,PAYLOAD,2024-08-19 12:06:00,15.08837812,0.0001441,53.2171,50.3191,78.162,281.9534,2.5735e-05,1.22e-06,0.0,0 STARLINK-4195,1 52870U 22062AS  24232.50417737  .00000122  00000-0  25735-4 0  9992,2 52870  53.2171  50.3191 0001441  78.1620 281.9534 15.08837812120307,6917.887,95.438,540.749,538.755,0.0
